MUOS-5                  
1 41622U 16041A   26116.90064748 -.00000171  00000+0  00000+0 0  9999
2 41622   2.3139 300.7391 0194762 261.6903 231.8071  1.00270809 36574
TIANTONG-1 1            
1 41725U 16048A   26115.72979334 -.00000328  00000+0  00000+0 0  9999
2 41725   3.7515  42.9578 0006440  20.2339 154.6450  1.00269141 35748
JCSAT-16                
1 41729U 16050A   26116.95013435  .00000000  00000+0  00000+0 0  9999
2 41729   0.0154 232.8379 0001142 179.9348 288.1739  1.00267907 35556
USA 270                 
1 41744U 16052A   26111.25336792  .00000060  00000+0  00000+0 0  9996
2 41744   4.0526  77.8945 0003438 320.1673  82.4480  1.00347865 27569
USA 271                 
1 41745U 16052B   26110.88563977 -.00000360  00000+0  00000+0 0  9996
2 41745   4.0240  77.9674 0007317 143.7849  69.2738  1.00241576 27344
INTELSAT 36 (IS-36)     
1 41747U 16053A   26116.65015978 -.00000036  00000+0  00000+0 0  9993
2 41747   0.0148 322.2759 0001426 357.3225 197.6014  1.00270682 35448
INTELSAT 33E (IS-33E)   
1 41748U 16053B   26116.96691704  .00000008  00000+0  00000+0 0  9993
2 41748   1.4444  84.8917 0023513 191.4497 353.0146  1.00163150 35736
INSAT-3DR               
1 41752U 16054A   26116.96837249 -.00000088  00000+0  00000+0 0  9994
2 41752   0.1155  86.2537 0011578 195.0845 356.2288  1.00271580 35307
GSAT-18                 
1 41793U 16060A   26116.96731785 -.00000088  00000+0  00000+0 0  9994
2 41793   0.0665  83.0684 0005088 335.2461 218.8890  1.00271450 35012
SKY MUSTER 2 (NBN1B)    
1 41794U 16060B   26116.87278179 -.00000255  00000+0  00000+0 0  9994
2 41794   0.0156 261.5652 0001740 127.4937 284.8091  1.00273221 35009
HIMAWARI-9              
1 41836U 16064A   26116.59321954 -.00000287  00000+0  00000+0 0  9999
2 41836   0.0377 124.5813 0000861 283.3117 161.0242  1.00272038 34696
SHIJIAN-17 (SJ-17)      
1 41838U 16065A   26116.84110986 -.00000286  00000+0  00000+0 0  9990
2 41838   5.6250  73.2065 0001546 350.1727  46.7773  0.99863989 34695
YZ-2 R/B                
1 41840U 16065C   26116.01372385 -.00000174  00000+0  00000+0 0  9991
2 41840   9.2357  67.0882 0465377 231.0187 124.7185  0.93473924 32363
GOES 16                 
1 41866U 16071A   26116.90108081 -.00000102  00000+0  00000+0 0  9995
2 41866   0.2130  85.2891 0001499 251.0284  98.2535  1.00271206 34582
TIANLIAN 1-04           
1 41869U 16072A   26116.91100238  .00000020  00000+0  00000+0 0  9994
2 41869   0.7351  83.0729 0040135  92.1597 184.4139  1.00272461 34786
WGS F8 (USA 272)        
1 41879U 16075A   26116.81641894 -.00000214  00000+0  00000+0 0  9991
2 41879   0.0134 281.4185 0000456 217.6873 159.4177  1.00272516 34305
FENGYUN 4A              
1 41882U 16077A   26116.94632100 -.00000366  00000+0  00000+0 0  9999
2 41882   2.1949  80.7916 0008114 141.1904  97.3367  1.00266708 34412
